{
  "type": "FeatureCollection",
  "features": [
    {
      "type": "Feature",
      "properties": {
        "norad_id": 33860,
        "name": "IRIDIUM 33 DEB",
        "group": "iridium-33-debris",
        "lat": 79.84481613134814,
        "lon": 48.09964472448338,
        "alt_km": 661.3975440949462,
        "timestamp": "2025-12-12T07:43:20.899991+00:00",
        "meta_object_name": "IRIDIUM 33 DEB",
        "meta_object_id": "1997-051AD",
        "meta_epoch": "2025-12-11T03:48:48.164256",
        "meta_mean_motion": 14.67334001,
        "meta_eccentricity": 0.00076792,
        "meta_inclination": 86.3835,
        "meta_ra_of_asc_node": 27.9377,
        "meta_arg_of_pericenter": 3.2947,
        "meta_mean_anomaly": 58.2985,
        "meta_ephemeris_type": 0,
        "meta_classification_type": "U",
        "meta_norad_cat_id": 33860,
        "meta_element_set_no": 999,
        "meta_rev_at_epoch": 88699,
        "meta_bstar": 0.0018344014,
        "meta_mean_motion_dot": 0.00010386,
        "meta_mean_motion_ddot": 0,
        "tle_line1": "1 33860U 97051AD  25345.15889079  .00010386  00000+0  18344-2 0  9997",
        "tle_line2": "2 33860  86.3835  27.9377 0007679   3.2947  58.2985 14.67334001886990"
      },
      "geometry": {
        "type": "Point",
        "coordinates": [
          48.09964472448338,
          79.84481613134814
        ]
      }
    },
    {
      "type": "Feature",
      "properties": {
        "norad_id": 33862,
        "name": "IRIDIUM 33 DEB",
        "group": "iridium-33-debris",
        "lat": 66.71972233551126,
        "lon": -150.67833040873114,
        "alt_km": 628.4501116423553,
        "timestamp": "2025-12-12T07:43:20.900003+00:00",
        "meta_object_name": "IRIDIUM 33 DEB",
        "meta_object_id": "1997-051AF",
        "meta_epoch": "2025-12-11T15:37:39.995904",
        "meta_mean_motion": 14.6944815,
        "meta_eccentricity": 0.00535473,
        "meta_inclination": 86.409,
        "meta_ra_of_asc_node": 38.0099,
        "meta_arg_of_pericenter": 72.8442,
        "meta_mean_anomaly": 94.4625,
        "meta_ephemeris_type": 0,
        "meta_classification_type": "U",
        "meta_norad_cat_id": 33862,
        "meta_element_set_no": 999,
        "meta_rev_at_epoch": 88807,
        "meta_bstar": 0.0022606602,
        "meta_mean_motion_dot": 0.00013719,
        "meta_mean_motion_ddot": 0,
        "tle_line1": "1 33862U 97051AF  25345.65115736  .00013719  00000+0  22607-2 0  9996",
        "tle_line2": "2 33862  86.4090  38.0099 0053547  72.8442  94.4625 14.69448150888074"
      },
      "geometry": {
        "type": "Point",
        "coordinates": [
          -150.67833040873114,
          66.71972233551126
        ]
      }
    },
    {
      "type": "Feature",
      "properties": {
        "norad_id": 33866,
        "name": "IRIDIUM 33 DEB",
        "group": "iridium-33-debris",
        "lat": -65.33275318362655,
        "lon": -78.6872397603197,
        "alt_km": 803.7089485704,
        "timestamp": "2025-12-12T07:43:20.900015+00:00",
        "meta_object_name": "IRIDIUM 33 DEB",
        "meta_object_id": "1997-051AK",
        "meta_epoch": "2025-12-11T17:52:24.585600",
        "meta_mean_motion": 14.2527019,
        "meta_eccentricity": 0.01144065,
        "meta_inclination": 86.2997,
        "meta_ra_of_asc_node": 93.4564,
        "meta_arg_of_pericenter": 164.5566,
        "meta_mean_anomaly": 0.7561,
        "meta_ephemeris_type": 0,
        "meta_classification_type": "U",
        "meta_norad_cat_id": 33866,
        "meta_element_set_no": 999,
        "meta_rev_at_epoch": 86796,
        "meta_bstar": 0.0011244698,
        "meta_mean_motion_dot": 2.851e-05,
        "meta_mean_motion_ddot": 0,
        "tle_line1": "1 33866U 97051AK  25345.74472900  .00002851  00000+0  11245-2 0  9990",
        "tle_line2": "2 33866  86.2997  93.4564 0114406 164.5566   0.7561 14.25270190867965"
      },
      "geometry": {
        "type": "Point",
        "coordinates": [
          -78.6872397603197,
          -65.33275318362655
        ]
      }
    },
    {
      "type": "Feature",
      "properties": {
        "norad_id": 33867,
        "name": "IRIDIUM 33 DEB",
        "group": "iridium-33-debris",
        "lat": 64.44289073827188,
        "lon": -2.038071117746092,
        "alt_km": 353.2280890000093,
        "timestamp": "2025-12-12T07:43:20.900026+00:00",
        "meta_object_name": "IRIDIUM 33 DEB",
        "meta_object_id": "1997-051AL",
        "meta_epoch": "2025-12-11T23:46:57.533952",
        "meta_mean_motion": 15.66357552,
        "meta_eccentricity": 0.00133715,
        "meta_inclination": 86.3648,
        "meta_ra_of_asc_node": 350.4931,
        "meta_arg_of_pericenter": 89.3333,
        "meta_mean_anomaly": 270.9467,
        "meta_ephemeris_type": 0,
        "meta_classification_type": "U",
        "meta_norad_cat_id": 33867,
        "meta_element_set_no": 999,
        "meta_rev_at_epoch": 89499,
        "meta_bstar": 0.0085221931,
        "meta_mean_motion_dot": 0.00974295,
        "meta_mean_motion_ddot": 0,
        "tle_line1": "1 33867U 97051AL  25345.99094368  .00974295  00000+0  85222-2 0  9992",
        "tle_line2": "2 33867  86.3648 350.4931 0013371  89.3333 270.9467 15.66357552894992"
      },
      "geometry": {
        "type": "Point",
        "coordinates": [
          -2.038071117746092,
          64.44289073827188
        ]
      }
    },
    {
      "type": "Feature",
      "properties": {
        "norad_id": 33870,
        "name": "IRIDIUM 33 DEB",
        "group": "iridium-33-debris",
        "lat": -47.709961978033554,
        "lon": 54.44272080044709,
        "alt_km": 756.4873390199655,
        "timestamp": "2025-12-12T07:43:20.900037+00:00",
        "meta_object_name": "IRIDIUM 33 DEB",
        "meta_object_id": "1997-051AP",
        "meta_epoch": "2025-12-11T05:37:02.620704",
        "meta_mean_motion": 14.45838487,
        "meta_eccentricity": 0.00213236,
        "meta_inclination": 86.3744,
        "meta_ra_of_asc_node": 58.9059,
        "meta_arg_of_pericenter": 182.8727,
        "meta_mean_anomaly": 231.2371,
        "meta_ephemeris_type": 0,
        "meta_classification_type": "U",
        "meta_norad_cat_id": 33870,
        "meta_element_set_no": 999,
        "meta_rev_at_epoch": 88115,
        "meta_bstar": 0.0012319282,
        "meta_mean_motion_dot": 4.403e-05,
        "meta_mean_motion_ddot": 0,
        "tle_line1": "1 33870U 97051AP  25345.23405811  .00004403  00000+0  12319-2 0  9994",
        "tle_line2": "2 33870  86.3744  58.9059 0021323 182.8727 231.2371 14.45838487881151"
      },
      "geometry": {
        "type": "Point",
        "coordinates": [
          54.44272080044709,
          -47.709961978033554
        ]
      }
    },
    {
      "type": "Feature",
      "properties": {
        "norad_id": 33881,
        "name": "IRIDIUM 33 DEB",
        "group": "iridium-33-debris",
        "lat": 15.77956702610375,
        "lon": -74.09939115885176,
        "alt_km": 662.4503035715243,
        "timestamp": "2025-12-12T07:43:20.900048+00:00",
        "meta_object_name": "IRIDIUM 33 DEB",
        "meta_object_id": "1997-051BA",
        "meta_epoch": "2025-12-11T14:32:20.085792",
        "meta_mean_motion": 14.56542071,
        "meta_eccentricity": 0.00614976,
        "meta_inclination": 86.3861,
        "meta_ra_of_asc_node": 107.2351,
        "meta_arg_of_pericenter": 178.2333,
        "meta_mean_anomaly": 194.09,
        "meta_ephemeris_type": 0,
        "meta_classification_type": "U",
        "meta_norad_cat_id": 33881,
        "meta_element_set_no": 999,
        "meta_rev_at_epoch": 87484,
        "meta_bstar": 0.0035261884,
        "meta_mean_motion_dot": 0.00016145,
        "meta_mean_motion_ddot": 0,
        "tle_line1": "1 33881U 97051BA  25345.60578803  .00016145  00000+0  35262-2 0  9997",
        "tle_line2": "2 33881  86.3861 107.2351 0061497 178.2333 194.0900 14.56542071874849"
      },
      "geometry": {
        "type": "Point",
        "coordinates": [
          -74.09939115885176,
          15.77956702610375
        ]
      }
    },
    {
      "type": "Feature",
      "properties": {
        "norad_id": 33884,
        "name": "IRIDIUM 33 DEB",
        "group": "iridium-33-debris",
        "lat": 79.04177111301247,
        "lon": 29.147738383066265,
        "alt_km": 632.9872483684449,
        "timestamp": "2025-12-12T07:43:20.900059+00:00",
        "meta_object_name": "IRIDIUM 33 DEB",
        "meta_object_id": "1997-051BD",
        "meta_epoch": "2025-12-11T10:27:31.158720",
        "meta_mean_motion": 14.77392014,
        "meta_eccentricity": 0.0009807,
        "meta_inclination": 86.3697,
        "meta_ra_of_asc_node": 10.4065,
        "meta_arg_of_pericenter": 328.8934,
        "meta_mean_anomaly": 81.4709,
        "meta_ephemeris_type": 0,
        "meta_classification_type": "U",
        "meta_norad_cat_id": 33884,
        "meta_element_set_no": 999,
        "meta_rev_at_epoch": 88828,
        "meta_bstar": 0.002752918,
        "meta_mean_motion_dot": 0.0001965,
        "meta_mean_motion_ddot": 0,
        "tle_line1": "1 33884U 97051BD  25345.43577730  .00019650  00000+0  27529-2 0  9990",
        "tle_line2": "2 33884  86.3697  10.4065 0009807 328.8934  81.4709 14.77392014888285"
      },
      "geometry": {
        "type": "Point",
        "coordinates": [
          29.147738383066265,
          79.04177111301247
        ]
      }
    }
  ]
}